[{"OBJECT_NAME":"STARLINK-4509","OBJECT_ID":"2022-097S","EPOCH":"2026-03-09T12:22:22.283616","MEAN_MOTION":15.0884141,"ECCENTRICITY":0.00012829,"INCLINATION":53.2165,"RA_OF_ASC_NODE":114.8358,"ARG_OF_PERICENTER":92.2882,"MEAN_ANOMALY":267.8257,"EPHEMERIS_TYPE":0,"CLASSIFICATION_TYPE":"U","NORAD_CAT_ID":53404,"ELEMENT_SET_NO":999,"REV_AT_EPOCH":19862,"BSTAR":2.1424163e-5,"MEAN_MOTION_DOT":5.3e-7,"MEAN_MOTION_DDOT":0},{"OBJECT_NAME":"CZ-4B DEB","OBJECT_ID":"1999-057Q","EPOCH":"2026-03-09T11:26:54.640320","MEAN_MOTION":15.06874272,"ECCENTRICITY":0.0020008,"INCLINATION":98.6841,"RA_OF_ASC_NODE":262.2845,"ARG_OF_PERICENTER":336.9186,"MEAN_ANOMALY":80.9466,"EPHEMERIS_TYPE":0,"CLASSIFICATION_TYPE":"U","NORAD_CAT_ID":26128,"ELEMENT_SET_NO":999,"REV_AT_EPOCH":40054,"BSTAR":0.00062227426,"MEAN_MOTION_DOT":9.256e-5,"MEAN_MOTION_DDOT":0}]
